COSMOS 2433 (720)       
1 32275U 07052A   22201.46742282 -.00000066  00000+0  00000+0 0  9996
2 32275  66.0826   3.5744 0001400 174.0395 213.9748  2.13104169114676
COSMOS 2432 (719)       
1 32276U 07052B   22201.77358462 -.00000066  00000+0  00000+0 0  9994
2 32276  66.0954   3.6659 0008396 341.7127 229.4224  2.13103371114677
COSMOS 2434 (721)       
1 32393U 07065A   22202.60029054  .00000058  00000+0  00000+0 0  9993
2 32393  64.3789 240.2608 0000828 144.2769 282.5205  2.13103053113403
COSMOS 2436 (723)       
1 32395U 07065C   22202.48502443  .00000056  00000+0  00000+0 0  9997
2 32395  64.3867 240.3219 0014535 352.7450 121.4956  2.13103036113331
COSMOS 2456 (730)       
1 36111U 09070A   22202.47724321 -.00000035  00000+0  00000+0 0  9993
2 36111  64.3614 119.8859 0004876 310.8510 186.6585  2.13099422 98066
COSMOS 2457 (733)       
1 36112U 09070B   22202.36408374 -.00000034  00000+0  00000+0 0  9998
2 36112  64.3441 119.7653 0004017 177.0438   1.2081  2.13101535 98067
COSMOS 2461 (735)       
1 36401U 10007B   22202.24105509 -.00000068  00000+0  00000+0 0  9999
2 36401  65.9697   2.3828 0020182  13.7933 105.1124  2.13103710 96412
COSMOS 2460 (732)       
1 36402U 10007C   22201.50152784 -.00000067  00000+0  00000+0 0  9994
2 36402  65.9546   2.3562 0002728  90.8293 129.4741  2.13106428 96392
COSMOS 2464 (736)       
1 37139U 10041C   22202.30706019  .00000055  00000+0  00000+0 0  9991
2 37139  63.9778 239.3298 0027880   6.8809  52.9375  2.13100830 92478
COSMOS 2476 (744)       
1 37867U 11064A   22202.22814606 -.00000030  00000+0  00000+0 0  9992
2 37867  64.6490 121.2640 0022181 239.5432 332.6599  2.13101906 83405
COSMOS 2477 (745)       
1 37868U 11064B   22202.42477948 -.00000032  00000+0  00000+0 0  9991
2 37868  64.6566 121.3225 0019384 240.8399 300.3100  2.13101784 83367
COSMOS 2475 (743)       
1 37869U 11064C   22202.42607667 -.00000032  00000+0  00000+0 0  9995
2 37869  64.6644 121.3308 0023901 257.7320 242.4675  2.13102154 83374
COSMOS 2485 (747)       
1 39155U 13019A   22202.16723054 -.00000028  00000+0  00000+0 0  9992
2 39155  64.8128 121.7019 0022529 234.8862 334.9774  2.13102050 71872
COSMOS 2492 (754)       
1 39620U 14012A   22201.87370287 -.00000068  00000+0  00000+0 0  9990
2 39620  65.8412   2.0215 0011318 332.8015  46.3260  2.13103202 64829
COSMOS 2500 (755)       
1 40001U 14032A   22202.01785446 -.00000068  00000+0  00000+0 0  9991
2 40001  65.7794   1.8744 0006047 178.8389 169.4533  2.13102397 63031
COSMOS 2501 (702K)      
1 40315U 14075A   22202.29376819  .00000054  00000+0  00000+0 0  9990
2 40315  63.6853 239.9858 0019245 210.8930 157.2320  2.13101527 59459
COSMOS 2514 (751)       
1 41330U 16008A   22201.32412094 -.00000068  00000+0  00000+0 0  9991
2 41330  65.5801   1.5818 0009747 198.3726 161.6016  2.13102796 50191
COSMOS 2516 (753)       
1 41554U 16032A   22202.39014326  .00000054  00000+0  00000+0 0  9994
2 41554  63.9113 240.2684 0014913 216.0927 145.1187  2.13106480 47828
COSMOS 2522 (752)       
1 42939U 17055A   22201.63105128  .00000044  00000+0  00000+0 0  9994
2 42939  64.1452 240.6988 0009387 242.0197 113.0706  2.13102027 37556
COSMOS 2527 (756)       
1 43508U 18053A   22202.27495281 -.00000029  00000+0  00000+0 0  9993
2 43508  64.9754 121.7054 0008518 237.6793 283.4889  2.13102555 31860
COSMOS 2529 (757)       
1 43687U 18086A   22202.25796008  .00000052  00000+0  00000+0 0  9991
2 43687  64.3597 241.0031 0011151 262.5611 169.0051  2.13102205 28881
COSMOS 2534 (758)       
1 44299U 19030A   22201.91007756  .00000048  00000+0  00000+0 0  9993
2 44299  64.4323 240.9032 0013555 281.7498  17.4858  2.13102059 24518
COSMOS 2544 (759)       
1 44850U 19088A   22201.77827061 -.00000023  00000+0  16595+1 0  9993
2 44850  64.9607 121.5733 0013308 262.3657 281.2050  2.13102322 20289
COSMOS 2545 (760)       
1 45358U 20018A   22202.45327072 -.00000071  00000+0  00000+0 0  9991
2 45358  64.9175   2.1240 0006800 238.2511 312.5940  2.13102771 18258
COSMOS 2547 (705K)      
1 46805U 20075A   22202.46216453  .00000056  00000+0  00000+0 0  9995
2 46805  64.6570 240.3189 0008373 244.4659 166.1290  2.13103208 13509
COSMOS 2557 (706K)      
1 52984U 22075A   22202.65000000 -.00000070  00000+0  10000-3 0  9994
2 52984  64.8130   4.3160 0007946 285.2840 147.7410  2.13098511   308
